STARLINK-3665           
1 52098U 22029L   25154.46771949 -.00000320  00000+0 -20257-5 0  9990
2 52098  53.2172 262.5969 0001298  92.8842 267.2298 15.08833529178509
STARLINK-3702           
1 52100U 22029N   25154.52659470 -.00000098  00000+0  11932-4 0  9995
2 52100  53.2185 262.3264 0001488  98.8709 261.2452 15.08836367178512
STARLINK-3703           
1 52101U 22029P   25154.53764701  .00000409  00000+0  43795-4 0  9998
2 52101  53.2177 262.4757 0001305  93.3948 266.7194 15.08839672178509
STARLINK-3709           
1 52102U 22029Q   25154.52847293  .00000703  00000+0  62283-4 0  9996
2 52102  53.2169 252.3243 0001322  85.3739 274.7404 15.08835237178648
STARLINK-3705           
1 52103U 22029R   25154.56797763  .00000218  00000+0  31804-4 0  9993
2 52103  53.2176 252.1479 0001522  90.0879 270.0288 15.08853440178641
STARLINK-3706           
1 52105U 22029T   25154.56158461 -.00003511  00000+0 -20260-3 0  9995
2 52105  53.2172 252.1761 0001192  89.0235 271.0894 15.08847908178646
STARLINK-3670           
1 52106U 22029U   25154.51552242  .00004425  00000+0  29575-3 0  9997
2 52106  53.2162 262.3814 0001446  97.1111 263.0046 15.08866367178508
STARLINK-3658           
1 52107U 22029V   25154.55694030  .00001578  00000+0  11718-3 0  9990
2 52107  53.2169 252.1962 0001410  89.3550 270.7604 15.08845450178648
STARLINK-3698           
1 52108U 22029W   25154.56429639  .00003025  00000+0  20801-3 0  9995
2 52108  53.2174 252.1637 0001223  86.2586 273.8546 15.08849754178641
STARLINK-3687           
1 52110U 22029Y   25154.56063165  .00000873  00000+0  72944-4 0  9990
2 52110  53.2175 252.1803 0001244  91.3188 268.7946 15.08838231178643
STARLINK-3708           
1 52111U 22029Z   25154.54585897  .00006491  00000+0  42498-3 0  9992
2 52111  53.2183 252.2449 0001432  83.8789 276.2366 15.08889347178646
STARLINK-3734           
1 52112U 22029AA  25153.55966418 -.00000076  00000+0  13306-4 0  9996
2 52112  53.2170 256.6728 0001520  95.7069 264.4096 15.08837276178498
STARLINK-3736           
1 52113U 22029AB  25154.53856265 -.00001914  00000+0 -10222-3 0  9990
2 52113  53.2172 252.2761 0001186  96.6309 263.4819 15.08826338178641
STARLINK-3737           
1 52114U 22029AC  25154.54957532  .00001687  00000+0  12401-3 0  9997
2 52114  53.2181 252.2299 0001212  93.8770 266.2360 15.08847034178658
STARLINK-3685           
1 52115U 22029AD  25154.53118932  .00000590  00000+0  55111-4 0  9998
2 52115  53.2162 252.3114 0001027  87.5082 272.6027 15.08843902178645
STARLINK-3735           
1 52116U 22029AE  25154.54222007  .00015523  00000+0  99040-3 0  9999
2 52116  53.2165 252.2623 0001298  81.3256 278.7883 15.08872678178647
STARLINK-3738           
1 52117U 22029AF  25154.52383260 -.00001017  00000+0 -45828-4 0  9998
2 52117  53.2160 252.3409 0001065  82.5259 277.5854 15.08840591178659
STARLINK-3743           
1 52118U 22029AG  25153.54126438  .00000535  00000+0  51687-4 0  9994
2 52118  53.2196 256.7531 0001376 103.1799 256.9346 15.08840309178493
STARLINK-3558           
1 52119U 22029AH  25154.51647445  .00000543  00000+0  52216-4 0  9997
2 52119  53.2168 252.3764 0001291  96.6551 263.4588 15.08844104178657
STARLINK-3534           
1 52120U 22029AJ  25154.52751558  .00001928  00000+0  13916-3 0  9992
2 52120  53.2157 252.3266 0001309  90.7270 269.3872 15.08840928178658
STARLINK-3678           
1 52121U 22029AK  25154.56523098  .00019167  00000+0  12195-2 0  9994
2 52121  53.2151 242.1588 0001582  97.4485 262.6687 15.08826613178781
STARLINK-3726           
1 52122U 22029AL  25154.52014573  .00000244  00000+0  33418-4 0  9993
2 52122  53.2177 252.3595 0001471  99.8546 260.2612 15.08848346178646
STARLINK-3725           
1 52123U 22029AM  25154.54039350  .00001867  00000+0  13535-3 0  9995
2 52123  53.2177 242.0954 0001157  91.8377 268.2747 15.08846243178794
STARLINK-3727           
1 52125U 22029AP  25154.22298904  .00002232  00000+0  15826-3 0  9996
2 52125  53.2171 243.6959 0001071 103.1660 256.9452 15.08845046178741
STARLINK-3732           
1 52126U 22029AQ  25154.42906809  .00000742  00000+0  64673-4 0  9998
2 52126  53.2164 242.7684 0001028  87.6096 272.5013 15.08841836178762
STARLINK-3715           
1 52127U 22029AR  25154.55050604 -.00000819  00000+0 -33351-4 0  9992
2 52127  53.2176 242.2256 0001330  93.0764 267.0380 15.08832806178780
STARLINK-3661           
1 52129U 22029AT  25154.47690995  .00002650  00000+0  18462-3 0  9996
2 52129  53.2159 242.5552 0001382 107.6432 252.4711 15.08826304178788
STARLINK-3711           
1 52131U 22029AV  25153.54586794 -.00000209  00000+0  49644-5 0  9994
2 52131  53.2173 246.7355 0001287  89.2942 270.8197 15.08834916178644
STARLINK-3718           
1 52132U 22029AW  25154.54682396  .00002240  00000+0  15875-3 0  9994
2 52132  53.2170 242.2433 0001200  96.9591 263.1537 15.08844650178795
STARLINK-3707           
1 52133U 22029AX  25154.53209368  .00002165  00000+0  15400-3 0  9998
2 52133  53.2173 242.3085 0001049  82.4385 277.6727 15.08851283178796
STARLINK-3721           
1 52134U 22029AY  25154.53578848  .00000404  00000+0  43478-4 0  9992
2 52134  53.2163 242.2916 0001155  90.3243 269.7882 15.08841588178798
STARLINK-3729           
1 52135U 22029AZ  25153.52841901 -.00000185  00000+0  64921-5 0  9998
2 52135  53.2166 246.8217 0001389  94.2331 265.8820 15.08845247178645
STARLINK-3720           
1 52136U 22029BA  25154.52841685  .00001092  00000+0  86671-4 0  9991
2 52136  53.2178 242.3248 0001274  91.2557 268.8581 15.08860700178798
STARLINK-3733           
1 52137U 22029BB  25154.51738397 -.00001294  00000+0 -63241-4 0  9990
2 52137  53.2185 242.3713 0001395  98.0560 262.0590 15.08840880178790
STARLINK-3723           
1 52138U 22029BC  25153.53114315 -.00000801  00000+0 -32254-4 0  9993
2 52138  53.2175 246.7998 0001283  90.5330 269.5809 15.08842942178641
STARLINK-3730           
1 52139U 22029BD  25154.50542235  .00001297  00000+0  99570-4 0  9990
2 52139  53.2166 252.4262 0001203  87.2356 272.8774 15.08845710178647
STARLINK-3682           
1 52140U 22029BE  25154.51374520 -.00006460  00000+0 -38853-3 0  9998
2 52140  53.2168 242.3879 0002348  82.7444 277.3815 15.08799424178794
STARLINK-3761           
1 52262U 22041B   25153.78138263 -.00000911  00000+0 -39126-4 0  9997
2 52262  53.2177 285.6293 0001436  86.7813 273.3344 15.08836825173324
STARLINK-3786           
1 52263U 22041C   25154.51370574  .00000791  00000+0  67790-4 0  9995
2 52263  53.2170 282.3884 0001332  96.7463 263.3681 15.08840044173427
STARLINK-3795           
1 52264U 22041D   25154.50634525  .00000564  00000+0  53500-4 0  9996
2 52264  53.2184 282.4240 0001476  90.3100 269.8062 15.08841863173421
STARLINK-3740           
1 52265U 22041E   25154.50267782 -.00002032  00000+0 -10963-3 0  9993
2 52265  53.2162 282.4378 0002084   8.5193 351.5835 15.08825734173447
STARLINK-3739           
1 52266U 22041F   25154.36650625  .00001231  00000+0  95413-4 0  9992
2 52266  53.2176 283.0508 0001413  94.2284 265.8870 15.08842892173421
STARLINK-3748           
1 52267U 22041G   25154.09786850 -.00004557  00000+0 -26845-3 0  9991
2 52267  53.2178 284.2632 0001461  97.4716 262.6442 15.08831357173371
STARLINK-3746           
1 52268U 22041H   25154.54313783  .00000519  00000+0  50708-4 0  9991
2 52268  53.2169 282.1796 0001203  88.4518 271.6612 15.08842653173442
STARLINK-3791           
1 52269U 22041J   25154.35914497  .00001192  00000+0  92974-4 0  9999
2 52269  53.2173 283.0838 0001228  85.2472 274.8660 15.08840478173414
STARLINK-3804           
1 52270U 22041K   25154.55048085  .00005142  00000+0  34061-3 0  9995
2 52270  53.2179 282.2527 0001683  81.3089 278.8094 15.08871673173432
STARLINK-3788           
1 52271U 22041L   25154.09050973 -.00000479  00000+0 -11994-4 0  9995
2 52271  53.2179 284.2905 0001382  86.9325 273.1825 15.08836490173376
STARLINK-3781           
1 52272U 22041M   25154.08411283 -.00000125  00000+0  10264-4 0  9996
2 52272  53.2172 284.3573 0001310  85.7153 274.3988 15.08839452173384
STARLINK-3782           
1 52273U 22041N   25154.51931474  .00000846  00000+0  71228-4 0  9990
2 52273  53.2184 272.7500 0001340  88.0333 272.0812 15.08838303173574
STARLINK-3790           
1 52274U 22041P   25154.07578255  .00000074  00000+0  22753-4 0  9998
2 52274  53.2179 284.3550 0001186  90.0996 270.0132 15.08840773173385
STARLINK-3784           
1 52275U 22041Q   25154.54682833  .00001485  00000+0  11136-3 0  9998
2 52275  53.2177 282.2417 0001335  89.9555 270.1590 15.08841405173435
STARLINK-3778           
1 52276U 22041R   25154.53578892  .00000259  00000+0  34349-4 0  9997
2 52276  53.2175 282.2908 0001551  88.8601 271.2568 15.08849896173449
STARLINK-3780           
1 52278U 22041T   25154.53211252  .00000789  00000+0  67684-4 0  9999
2 52278  53.2177 282.3064 0001306  91.3600 268.7542 15.08837736173446
STARLINK-3764           
1 52280U 22041V   25154.52107282  .00000796  00000+0  68083-4 0  9990
2 52280  53.2179 282.3568 0001134  99.7646 260.3474 15.08839529173445
STARLINK-3779           
1 52281U 22041W   25154.53674884  .00001595  00000+0  11828-3 0  9991
2 52281  53.2197 282.2869 0001684 105.6708 254.4470 15.08833234173442
STARLINK-3783           
1 52282U 22041X   25154.51462149  .00000106  00000+0  24755-4 0  9990
2 52282  53.2185 272.3859 0001543  85.2642 274.8527 15.08841551173577
STARLINK-3789           
1 52283U 22041Y   25154.52844108 -.00000318  00000+0 -18763-5 0  9991
2 52283  53.2177 282.3204 0001231  83.7074 276.4058 15.08835047173446
STARLINK-3561           
1 52284U 22041Z   25154.50726485  .00001202  00000+0  93631-4 0  9994
2 52284  53.2186 272.4189 0001509  97.3315 262.7849 15.08840571173574
STARLINK-3775           
1 52285U 22041AA  25154.52474318  .00000887  00000+0  73805-4 0  9991
2 52285  53.2181 282.3387 0001415  93.9032 266.2121 15.08842728173459
